SENTINEL-2A             
1 40697U 15028A   26192.96993436 -.00000056  00000+0 -48930-5 0  9992
2 40697  98.5681 267.4688 0001273  94.8735 265.2594 14.30813289577275
SENTINEL-2B             
1 42063U 17013A   26192.96274684 -.00000001  00000+0  16391-4 0  9998
2 42063  98.5688 267.3866 0001224  90.1609 269.9714 14.30814206488189
SENTINEL-2C             
1 60989U 24157A   26192.78793737  .00000028  00000+0  27400-4 0  9998
2 60989  98.5685 267.2210 0000950 100.0573 260.0717 14.30815045 96509
