{"fetched_at":"2026-07-12T07:15:57.848Z","source":"https://celestrak.org/NORAD/elements/gp.php?NAME=SENTINEL&FORMAT=JSON","constellation":"sentinel-2","records":[{"OBJECT_NAME":"SENTINEL-2A","OBJECT_ID":"2015-028A","EPOCH":"2026-07-11T23:16:42.328704","CLASSIFICATION_TYPE":"U","MEAN_MOTION":14.30813289,"ECCENTRICITY":0.00012737,"INCLINATION":98.5681,"RA_OF_ASC_NODE":267.4688,"ARG_OF_PERICENTER":94.8735,"MEAN_ANOMALY":265.2594,"EPHEMERIS_TYPE":0,"NORAD_CAT_ID":40697,"ELEMENT_SET_NO":999,"REV_AT_EPOCH":57727,"BSTAR":-0.000004893049,"MEAN_MOTION_DOT":-5.6e-7,"MEAN_MOTION_DDOT":0},{"OBJECT_NAME":"SENTINEL-2B","OBJECT_ID":"2017-013A","EPOCH":"2026-07-11T23:06:21.326976","CLASSIFICATION_TYPE":"U","MEAN_MOTION":14.30814206,"ECCENTRICITY":0.00012248,"INCLINATION":98.5688,"RA_OF_ASC_NODE":267.3866,"ARG_OF_PERICENTER":90.1609,"MEAN_ANOMALY":269.9714,"EPHEMERIS_TYPE":0,"NORAD_CAT_ID":42063,"ELEMENT_SET_NO":999,"REV_AT_EPOCH":48818,"BSTAR":0.000016391097,"MEAN_MOTION_DOT":-1e-8,"MEAN_MOTION_DDOT":0},{"OBJECT_NAME":"SENTINEL-2C","OBJECT_ID":"2024-157A","EPOCH":"2026-07-11T18:54:37.788768","CLASSIFICATION_TYPE":"U","MEAN_MOTION":14.30815045,"ECCENTRICITY":0.00009505,"INCLINATION":98.5685,"RA_OF_ASC_NODE":267.221,"ARG_OF_PERICENTER":100.0573,"MEAN_ANOMALY":260.0717,"EPHEMERIS_TYPE":0,"NORAD_CAT_ID":60989,"ELEMENT_SET_NO":999,"REV_AT_EPOCH":9650,"BSTAR":0.000027399863,"MEAN_MOTION_DOT":2.8e-7,"MEAN_MOTION_DDOT":0}]}
